{
  "type": "FeatureCollection",
  "features": [
    {
      "type": "Feature",
      "properties": {
        "norad_id": 28054,
        "name": "DMSP 5D-3 F16 (USA 172)",
        "group": "weather",
        "lat": -46.28484869159166,
        "lon": 9.546715556101903,
        "alt_km": 846.4903073845135,
        "timestamp": "2025-12-08T13:49:31.434708+00:00",
        "meta_object_name": "DMSP 5D-3 F16 (USA 172)",
        "meta_object_id": "2003-048A",
        "meta_epoch": "2025-12-08T07:18:20.786400",
        "meta_mean_motion": 14.14421939,
        "meta_eccentricity": 0.00066693,
        "meta_inclination": 99.0048,
        "meta_ra_of_asc_node": 359.7265,
        "meta_arg_of_pericenter": 334.5933,
        "meta_mean_anomaly": 36.0243,
        "meta_ephemeris_type": 0,
        "meta_classification_type": "U",
        "meta_norad_cat_id": 28054,
        "meta_element_set_no": 999,
        "meta_rev_at_epoch": 14250,
        "meta_bstar": 0.00016037876,
        "meta_mean_motion_dot": 2.62e-06,
        "meta_mean_motion_ddot": 0,
        "tle_line1": "1 28054U 03048A   25342.30440725  .00000262  00000+0  16038-3 0  9995",
        "tle_line2": "2 28054  99.0048 359.7265 0006669 334.5933  36.0243 14.14421939142503"
      },
      "geometry": {
        "type": "Point",
        "coordinates": [
          9.546715556101903,
          -46.28484869159166
        ]
      }
    },
    {
      "type": "Feature",
      "properties": {
        "norad_id": 28912,
        "name": "METEOSAT-9 (MSG-2)",
        "group": "weather",
        "lat": -8.910996370161378,
        "lon": -29.30918265425469,
        "alt_km": 35785.19091886103,
        "timestamp": "2025-12-08T13:49:31.434766+00:00",
        "meta_object_name": "METEOSAT-9 (MSG-2)",
        "meta_object_id": "2005-049B",
        "meta_epoch": "2025-12-07T20:41:55.425120",
        "meta_mean_motion": 1.00273689,
        "meta_eccentricity": 0.00039018,
        "meta_inclination": 8.9285,
        "meta_ra_of_asc_node": 56.0211,
        "meta_arg_of_pericenter": 189.463,
        "meta_mean_anomaly": 187.4925,
        "meta_ephemeris_type": 0,
        "meta_classification_type": "U",
        "meta_norad_cat_id": 28912,
        "meta_element_set_no": 999,
        "meta_rev_at_epoch": 508,
        "meta_bstar": 0,
        "meta_mean_motion_dot": 1.24e-06,
        "meta_mean_motion_ddot": 0,
        "tle_line1": "1 28912U 05049B   25341.86244705  .00000124  00000+0  00000+0 0  9996",
        "tle_line2": "2 28912   8.9285  56.0211 0003901 189.4630 187.4925  1.00273689  5080"
      },
      "geometry": {
        "type": "Point",
        "coordinates": [
          -29.30918265425469,
          -8.910996370161378
        ]
      }
    },
    {
      "type": "Feature",
      "properties": {
        "norad_id": 29522,
        "name": "DMSP 5D-3 F17 (USA 191)",
        "group": "weather",
        "lat": -64.73588801015914,
        "lon": 149.02931280338802,
        "alt_km": 843.1579882955975,
        "timestamp": "2025-12-08T13:49:31.434785+00:00",
        "meta_object_name": "DMSP 5D-3 F17 (USA 191)",
        "meta_object_id": "2006-050A",
        "meta_epoch": "2025-12-08T05:52:35.395104",
        "meta_mean_motion": 14.14916828,
        "meta_eccentricity": 0.00092687,
        "meta_inclination": 98.7393,
        "meta_ra_of_asc_node": 347.7275,
        "meta_arg_of_pericenter": 238.662,
        "meta_mean_anomaly": 121.3647,
        "meta_ephemeris_type": 0,
        "meta_classification_type": "U",
        "meta_norad_cat_id": 29522,
        "meta_element_set_no": 999,
        "meta_rev_at_epoch": 98541,
        "meta_bstar": 0.00018988043,
        "meta_mean_motion_dot": 3.24e-06,
        "meta_mean_motion_ddot": 0,
        "tle_line1": "1 29522U 06050A   25342.24485411  .00000324  00000+0  18988-3 0  9991",
        "tle_line2": "2 29522  98.7393 347.7275 0009268 238.6620 121.3647 14.14916828985413"
      },
      "geometry": {
        "type": "Point",
        "coordinates": [
          149.02931280338802,
          -64.73588801015914
        ]
      }
    },
    {
      "type": "Feature",
      "properties": {
        "norad_id": 32958,
        "name": "FENGYUN 3A",
        "group": "weather",
        "lat": -69.48579840924138,
        "lon": 78.12674350410224,
        "alt_km": 832.4684857202838,
        "timestamp": "2025-12-08T13:49:31.434798+00:00",
        "meta_object_name": "FENGYUN 3A",
        "meta_object_id": "2008-026A",
        "meta_epoch": "2025-12-08T07:34:09.796224",
        "meta_mean_motion": 14.19512565,
        "meta_eccentricity": 0.00081018,
        "meta_inclination": 98.6692,
        "meta_ra_of_asc_node": 281.9355,
        "meta_arg_of_pericenter": 324.3288,
        "meta_mean_anomaly": 35.7346,
        "meta_ephemeris_type": 0,
        "meta_classification_type": "U",
        "meta_norad_cat_id": 32958,
        "meta_element_set_no": 999,
        "meta_rev_at_epoch": 90832,
        "meta_bstar": 0.0001438781,
        "meta_mean_motion_dot": 2.6e-06,
        "meta_mean_motion_ddot": 0,
        "tle_line1": "1 32958U 08026A   25342.31539116  .00000260  00000+0  14388-3 0  9992",
        "tle_line2": "2 32958  98.6692 281.9355 0008101 324.3288  35.7346 14.19512565908321"
      },
      "geometry": {
        "type": "Point",
        "coordinates": [
          78.12674350410224,
          -69.48579840924138
        ]
      }
    },
    {
      "type": "Feature",
      "properties": {
        "norad_id": 35491,
        "name": "GOES 14",
        "group": "weather",
        "lat": 1.1830751446027754,
        "lon": 176.61091643476908,
        "alt_km": 35777.79160618424,
        "timestamp": "2025-12-08T13:49:31.434814+00:00",
        "meta_object_name": "GOES 14",
        "meta_object_id": "2009-033A",
        "meta_epoch": "2025-12-08T05:56:27.187296",
        "meta_mean_motion": 1.00273042,
        "meta_eccentricity": 0.00041014,
        "meta_inclination": 1.1876,
        "meta_ra_of_asc_node": 85.4574,
        "meta_arg_of_pericenter": 154.3532,
        "meta_mean_anomaly": 178.252,
        "meta_ephemeris_type": 0,
        "meta_classification_type": "U",
        "meta_norad_cat_id": 35491,
        "meta_element_set_no": 999,
        "meta_rev_at_epoch": 467,
        "meta_bstar": 0,
        "meta_mean_motion_dot": -6.6e-07,
        "meta_mean_motion_ddot": 0,
        "tle_line1": "1 35491U 09033A   25342.24753689 -.00000066  00000+0  00000+0 0  9998",
        "tle_line2": "2 35491   1.1876  85.4574 0004101 154.3532 178.2520  1.00273042  4670"
      },
      "geometry": {
        "type": "Point",
        "coordinates": [
          176.61091643476908,
          1.1830751446027754
        ]
      }
    },
    {
      "type": "Feature",
      "properties": {
        "norad_id": 35951,
        "name": "DMSP 5D-3 F18 (USA 210)",
        "group": "weather",
        "lat": 62.73444069511482,
        "lon": 156.66238922852253,
        "alt_km": 830.4831609484118,
        "timestamp": "2025-12-08T13:49:31.434826+00:00",
        "meta_object_name": "DMSP 5D-3 F18 (USA 210)",
        "meta_object_id": "2009-057A",
        "meta_epoch": "2025-12-08T06:29:29.447808",
        "meta_mean_motion": 14.14765224,
        "meta_eccentricity": 0.00121112,
        "meta_inclination": 98.8829,
        "meta_ra_of_asc_node": 318.6937,
        "meta_arg_of_pericenter": 74.386,
        "meta_mean_anomaly": 285.8649,
        "meta_ephemeris_type": 0,
        "meta_classification_type": "U",
        "meta_norad_cat_id": 35951,
        "meta_element_set_no": 999,
        "meta_rev_at_epoch": 83259,
        "meta_bstar": 0.00026741176,
        "meta_mean_motion_dot": 4.71e-06,
        "meta_mean_motion_ddot": 0,
        "tle_line1": "1 35951U 09057A   25342.27047972  .00000471  00000+0  26741-3 0  9992",
        "tle_line2": "2 35951  98.8829 318.6937 0012111  74.3860 285.8649 14.14765224832595"
      },
      "geometry": {
        "type": "Point",
        "coordinates": [
          156.66238922852253,
          62.73444069511482
        ]
      }
    },
    {
      "type": "Feature",
      "properties": {
        "norad_id": 36411,
        "name": "EWS-G2 (GOES 15)",
        "group": "weather",
        "lat": -0.7905120666763823,
        "lon": -13.530625562784248,
        "alt_km": 35785.98609952334,
        "timestamp": "2025-12-08T13:49:31.434840+00:00",
        "meta_object_name": "EWS-G2 (GOES 15)",
        "meta_object_id": "2010-008A",
        "meta_epoch": "2025-12-08T05:20:07.584864",
        "meta_mean_motion": 1.00268577,
        "meta_eccentricity": 0.00059779,
        "meta_inclination": 0.8024,
        "meta_ra_of_asc_node": 86.0614,
        "meta_arg_of_pericenter": 172.8006,
        "meta_mean_anomaly": 319.8489,
        "meta_ephemeris_type": 0,
        "meta_classification_type": "U",
        "meta_norad_cat_id": 36411,
        "meta_element_set_no": 999,
        "meta_rev_at_epoch": 5772,
        "meta_bstar": 0,
        "meta_mean_motion_dot": 4e-07,
        "meta_mean_motion_ddot": 0,
        "tle_line1": "1 36411U 10008A   25342.22231001  .00000040  00000+0  00000+0 0  9993",
        "tle_line2": "2 36411   0.8024  86.0614 0005977 172.8006 319.8489  1.00268577 57727"
      },
      "geometry": {
        "type": "Point",
        "coordinates": [
          -13.530625562784248,
          -0.7905120666763823
        ]
      }
    }
  ]
}